[
    {
        "Altitude(m)": 604969.0891183566,
        "Argument of Periapsis(deg)": 0.0,
        "Eccentricity": 0.0,
        "Inclination(deg)": 60.0,
        "Latitude(deg)": -0.09264569464137049,
        "Longitude(deg)": -170.0224725468315,
        "Mean Anomaly(deg)": 0.0,
        "RAAN(deg)": 290.0,
        "Satellite Name": "Test1 1276",
        "Satellite Number": 1276,
        "Semi-Major Axis(m)": 6980739.136638005,
        "Time(s)": 0
    },
    {
        "Altitude(m)": 604900.028717104,
        "Argument of Periapsis(deg)": 0.00010418945913296404,
        "Eccentricity": 0.0,
        "Inclination(deg)": 60.0,
        "Latitude(deg)": 0.44777975578400964,
        "Longitude(deg)": -169.7543486317183,
        "Mean Anomaly(deg)": 0.620106145461853,
        "RAAN(deg)": 289.99957995086027,
        "Satellite Name": "Test1 1276",
        "Satellite Number": 1276,
        "Semi-Major Axis(m)": 6980739.136638005,
        "Time(s)": 10
    }
]